[
    {
        "Altitude(m)": 576598.7148373409,
        "Argument of Periapsis(deg)": 0.0,
        "Eccentricity": 0.0,
        "Inclination(deg)": 97.0,
        "Latitude(deg)": 78.4229114706155,
        "Longitude(deg)": 116.62193053694352,
        "Mean Anomaly(deg)": 99.3103,
        "RAAN(deg)": 0.0,
        "Satellite Name": "Starlink Shell 3 1600",
        "Satellite Number": 1600,
        "Semi-Major Axis(m)": 6938478.169268562,
        "Time(s)": 0
    },
    {
        "Altitude(m)": 576547.9273575447,
        "Argument of Periapsis(deg)": -0.0003965466804030246,
        "Eccentricity": 0.0,
        "Inclination(deg)": 97.0,
        "Latitude(deg)": 77.92086002600071,
        "Longitude(deg)": 114.78273009196424,
        "Mean Anomaly(deg)": 99.93577619770505,
        "RAAN(deg)": 0.00010433427400896087,
        "Satellite Name": "Starlink Shell 3 1600",
        "Satellite Number": 1600,
        "Semi-Major Axis(m)": 6938478.169268562,
        "Time(s)": 10
    },
    {
        "Altitude(m)": 576493.9991212782,
        "Argument of Periapsis(deg)": -0.0007930933608060492,
        "Eccentricity": 0.0,
        "Inclination(deg)": 97.0,
        "Latitude(deg)": 77.40816007013305,
        "Longitude(deg)": 113.08629446057414,
        "Mean Anomaly(deg)": 100.5612523954101,
        "RAAN(deg)": 0.00020866854801792175,
        "Satellite Name": "Starlink Shell 3 1600",
        "Satellite Number": 1600,
        "Semi-Major Axis(m)": 6938478.169268562,
        "Time(s)": 20
    },
    {
        "Altitude(m)": 576436.9606577709,
        "Argument of Periapsis(deg)": -0.001189640041209074,
        "Eccentricity": 0.0,
        "Inclination(deg)": 97.0,
        "Latitude(deg)": 76.886055621645,
        "Longitude(deg)": 111.51837133412707,
        "Mean Anomaly(deg)": 101.18672859311512,
        "RAAN(deg)": 0.0003130028220268826,
        "Satellite Name": "Starlink Shell 3 1600",
        "Satellite Number": 1600,
        "Semi-Major Axis(m)": 6938478.169268562,
        "Time(s)": 30
    },
    {
        "Altitude(m)": 576376.8442725801,
        "Argument of Periapsis(deg)": -0.0015861867216120985,
        "Eccentricity": 0.0,
        "Inclination(deg)": 97.0,
        "Latitude(deg)": 76.35562129968551,
        "Longitude(deg)": 110.06615855708708,
        "Mean Anomaly(deg)": 101.81220479082016,
        "RAAN(deg)": 0.0004173370960358435,
        "Satellite Name": "Starlink Shell 3 1600",
        "Satellite Number": 1600,
        "Semi-Major Axis(m)": 6938478.169268562,
        "Time(s)": 40
    },
    {
        "Altitude(m)": 576313.6840323951,
        "Argument of Periapsis(deg)": -0.0019827334020151234,
        "Eccentricity": 0.0,
        "Inclination(deg)": 97.0,
        "Latitude(deg)": 75.81778672598121,
        "Longitude(deg)": 108.71820754560957,
        "Mean Anomaly(deg)": 102.43768098852522,
        "RAAN(deg)": 0.0005216713700448044,
        "Satellite Name": "Starlink Shell 3 1600",
        "Satellite Number": 1600,
        "Semi-Major Axis(m)": 6938478.169268562,
        "Time(s)": 50
    },
    {
        "Altitude(m)": 576247.5157489835,
        "Argument of Periapsis(deg)": -0.002379280082418148,
        "Eccentricity": 0.0,
        "Inclination(deg)": 97.0,
        "Latitude(deg)": 75.27335763110477,
        "Longitude(deg)": 107.46430973922813,
        "Mean Anomaly(deg)": 103.06315718623026,
        "RAAN(deg)": 0.0006260056440537652,
        "Satellite Name": "Starlink Shell 3 1600",
        "Satellite Number": 1600,
        "Semi-Major Axis(m)": 6938478.169268562,
        "Time(s)": 60
    },
    {
        "Altitude(m)": 576178.3769623007,
        "Argument of Periapsis(deg)": -0.002775826762821173,
        "Eccentricity": 0.0,
        "Inclination(deg)": 97.0,
        "Latitude(deg)": 74.72303394341738,
        "Longitude(deg)": 106.29537743625487,
        "Mean Anomaly(deg)": 103.68863338393531,
        "RAAN(deg)": 0.0007303399180627261,
        "Satellite Name": "Starlink Shell 3 1600",
        "Satellite Number": 1600,
        "Semi-Major Axis(m)": 6938478.169268562,
        "Time(s)": 70
    },
    {
        "Altitude(m)": 576106.3069227752,
        "Argument of Periapsis(deg)": -0.003172373443224197,
        "Eccentricity": 0.0,
        "Inclination(deg)": 97.0,
        "Latitude(deg)": 74.1674251998802,
        "Longitude(deg)": 105.20332531496341,
        "Mean Anomaly(deg)": 104.31410958164035,
        "RAAN(deg)": 0.000834674192071687,
        "Satellite Name": "Starlink Shell 3 1600",
        "Satellite Number": 1600,
        "Semi-Major Axis(m)": 6938478.169268562,
        "Time(s)": 80
    },
    {
        "Altitude(m)": 576031.3465727906,
        "Argument of Periapsis(deg)": -0.0035689201236272223,
        "Eccentricity": 0.0,
        "Inclination(deg)": 97.0,
        "Latitude(deg)": 73.60706362726432,
        "Longitude(deg)": 104.18096010935649,
        "Mean Anomaly(deg)": 104.93958577934538,
        "RAAN(deg)": 0.0009390084660806479,
        "Satellite Name": "Starlink Shell 3 1600",
        "Satellite Number": 1600,
        "Semi-Major Axis(m)": 6938478.169268562,
        "Time(s)": 90
    },
    {
        "Altitude(m)": 575953.5385273357,
        "Argument of Periapsis(deg)": -0.003965466804030247,
        "Eccentricity": 0.0,
        "Inclination(deg)": 97.0,
        "Latitude(deg)": 73.04241522393622,
        "Longitude(deg)": 103.22187917873195,
        "Mean Anomaly(deg)": 105.56506197705042,
        "RAAN(deg)": 0.0010433427400896088,
        "Satellite Name": "Starlink Shell 3 1600",
        "Satellite Number": 1600,
        "Semi-Major Axis(m)": 6938478.169268562,
        "Time(s)": 100
    },
    {
        "Altitude(m)": 575872.92705384,
        "Argument of Periapsis(deg)": -0.004362013484433271,
        "Eccentricity": 0.0,
        "Inclination(deg)": 97.0,
        "Latitude(deg)": 72.4738891408602,
        "Longitude(deg)": 102.32037732885907,
        "Mean Anomaly(deg)": 106.19053817475547,
        "RAAN(deg)": 0.0011476770140985695,
        "Satellite Name": "Starlink Shell 3 1600",
        "Satellite Number": 1600,
        "Semi-Major Axis(m)": 6938478.169268562,
        "Time(s)": 110
    },
    {
        "Altitude(m)": 575789.5580512395,
        "Argument of Periapsis(deg)": -0.004758560164836296,
        "Eccentricity": 0.0,
        "Inclination(deg)": 97.0,
        "Latitude(deg)": 71.90184562426833,
        "Longitude(deg)": 101.47136494247265,
        "Mean Anomaly(deg)": 106.81601437246051,
        "RAAN(deg)": 0.0012520112881075304,
        "Satellite Name": "Starlink Shell 3 1600",
        "Satellite Number": 1600,
        "Semi-Major Axis(m)": 6938478.169268562,
        "Time(s)": 120
    },
    {
        "Altitude(m)": 575703.4790282216,
        "Argument of Periapsis(deg)": -0.005155106845239321,
        "Eccentricity": 0.0,
        "Inclination(deg)": 97.0,
        "Latitude(deg)": 71.32660274635425,
        "Longitude(deg)": 100.6702954557623,
        "Mean Anomaly(deg)": 107.44149057016556,
        "RAAN(deg)": 0.0013563455621164913,
        "Satellite Name": "Starlink Shell 3 1600",
        "Satellite Number": 1600,
        "Semi-Major Axis(m)": 6938478.169268562,
        "Time(s)": 130
    },
    {
        "Altitude(m)": 575614.7390807173,
        "Argument of Periapsis(deg)": -0.005551653525642346,
        "Eccentricity": 0.0,
        "Inclination(deg)": 97.0,
        "Latitude(deg)": 70.74844211678982,
        "Longitude(deg)": 99.91309996434913,
        "Mean Anomaly(deg)": 108.06696676787061,
        "RAAN(deg)": 0.0014606798361254522,
        "Satellite Name": "Starlink Shell 3 1600",
        "Satellite Number": 1600,
        "Semi-Major Axis(m)": 6938478.169268562,
        "Time(s)": 140
    },
    {
        "Altitude(m)": 575523.3888685922,
        "Argument of Periapsis(deg)": -0.005948200206045371,
        "Eccentricity": 0.0,
        "Inclination(deg)": 97.0,
        "Latitude(deg)": 70.16761373791223,
        "Longitude(deg)": 99.19613117152953,
        "Mean Anomaly(deg)": 108.69244296557565,
        "RAAN(deg)": 0.0015650141101344129,
        "Satellite Name": "Starlink Shell 3 1600",
        "Satellite Number": 1600,
        "Semi-Major Axis(m)": 6938478.169268562,
        "Time(s)": 150
    },
    {
        "Altitude(m)": 575429.4805915861,
        "Argument of Periapsis(deg)": -0.006344746886448394,
        "Eccentricity": 0.0,
        "Inclination(deg)": 97.0,
        "Latitude(deg)": 69.58434014037887,
        "Longitude(deg)": 98.51611433101309,
        "Mean Anomaly(deg)": 109.31791916328069,
        "RAAN(deg)": 0.001669348384143374,
        "Satellite Name": "Starlink Shell 3 1600",
        "Satellite Number": 1600,
        "Semi-Major Axis(m)": 6938478.169268562,
        "Time(s)": 160
    },
    {
        "Altitude(m)": 575333.0679644918,
        "Argument of Periapsis(deg)": -0.00674129356685142,
        "Eccentricity": 0.0,
        "Inclination(deg)": 97.0,
        "Latitude(deg)": 68.99881991380792,
        "Longitude(deg)": 97.87010286523949,
        "Mean Anomaly(deg)": 109.94339536098575,
        "RAAN(deg)": 0.001773682658152335,
        "Satellite Name": "Starlink Shell 3 1600",
        "Satellite Number": 1600,
        "Semi-Major Axis(m)": 6938478.169268562,
        "Time(s)": 170
    },
    {
        "Altitude(m)": 575234.2061915979,
        "Argument of Periapsis(deg)": -0.007137840247254445,
        "Eccentricity": 0.0,
        "Inclination(deg)": 97.0,
        "Latitude(deg)": 68.41123072808473,
        "Longitude(deg)": 97.25544093515495,
        "Mean Anomaly(deg)": 110.56887155869079,
        "RAAN(deg)": 0.0018780169321612958,
        "Satellite Name": "Starlink Shell 3 1600",
        "Satellite Number": 1600,
        "Semi-Major Axis(m)": 6938478.169268562,
        "Time(s)": 180
    }
]